start=new Date('2022-10-15T00:00:00.000Z').valueOf();
sats=[{"REF_FRAME":"TEME","PERIAPSIS":"546.261","LAUNCH_DATE":"2021-02-16","TLE_LINE1":"1 47649U 21012AF  22287.55769151  .00005009  00000-0  35494-3 0  9998","MEAN_ELEMENT_THEORY":"SGP4","BSTAR":"0.00035494000000","CENTER_NAME":"EARTH","TIME_SYSTEM":"UTC","RCS_SIZE":"LARGE","RA_OF_ASC_NODE":"227.7790","GP_ID":"215101613","APOAPSIS":"548.176","OBJECT_TYPE":"PAYLOAD","SITE":"AFETR","ECCENTRICITY":"0.00013830","MEAN_ANOMALY":"273.8156","OBJECT_ID":"2021-012AF","CLASSIFICATION_TYPE":"U","PERIOD":"95.592","DECAY_DATE":null,"ELEMENT_SET_NO":"999","MEAN_MOTION_DDOT":"0.0000000000000","SEMIMAJOR_AXIS":"6925.353","EPOCH":"2022-10-14T13:23:04.546464","EPHEMERIS_TYPE":"0","COUNTRY_CODE":"US","TLE_LINE2":"2 47649  53.0536 227.7790 0001383  86.2991 273.8156 15.06398420 93055","REV_AT_EPOCH":"9305","OBJECT_NAME":"STARLINK-2032","MEAN_MOTION":"15.06398420","NORAD_CAT_ID":"47649","MEAN_MOTION_DOT":"0.00005009","FILE":"3611991","INCLINATION":"53.0536","ARG_OF_PERICENTER":"86.2991"},{"ECCENTRICITY":"0.00012370","SITE":"AFETR","OBJECT_TYPE":"PAYLOAD","APOAPSIS":"548.066","GP_ID":"215100362","RA_OF_ASC_NODE":"229.0356","RCS_SIZE":"LARGE","TIME_SYSTEM":"UTC","CENTER_NAME":"EARTH","BSTAR":"0.00022225000000","MEAN_ELEMENT_THEORY":"SGP4","TLE_LINE1":"1 47650U 21012AG  22287.27755716  .00003031  00000-0  22225-3 0  9992","LAUNCH_DATE":"2021-02-16","PERIAPSIS":"546.353","REF_FRAME":"TEME","INCLINATION":"53.0545","ARG_OF_PERICENTER":"80.9906","FILE":"3611991","MEAN_MOTION_DOT":"0.00003031","NORAD_CAT_ID":"47650","MEAN_MOTION":"15.06401347","OBJECT_NAME":"STARLINK-2033","REV_AT_EPOCH":"9299","TLE_LINE2":"2 47650  53.0545 229.0356 0001237  80.9906 279.1223 15.06401347 92994","COUNTRY_CODE":"US","EPHEMERIS_TYPE":"0","EPOCH":"2022-10-14T06:39:40.938624","SEMIMAJOR_AXIS":"6925.344","ELEMENT_SET_NO":"999","MEAN_MOTION_DDOT":"0.0000000000000","DECAY_DATE":null,"PERIOD":"95.592","CLASSIFICATION_TYPE":"U","OBJECT_ID":"2021-012AG","MEAN_ANOMALY":"279.1223"},{"MEAN_ANOMALY":"290.8252","OBJECT_ID":"2021-012AH","CLASSIFICATION_TYPE":"U","PERIOD":"95.592","DECAY_DATE":null,"MEAN_MOTION_DDOT":"0.0000000000000","ELEMENT_SET_NO":"999","SEMIMAJOR_AXIS":"6925.320","EPOCH":"2022-10-14T21:55:16.608288","EPHEMERIS_TYPE":"0","COUNTRY_CODE":"US","TLE_LINE2":"2 47651  53.0533 246.2272 0001466  69.2894 290.8252 15.06409282 92820","REV_AT_EPOCH":"9282","OBJECT_NAME":"STARLINK-2035","MEAN_MOTION":"15.06409282","NORAD_CAT_ID":"47651","MEAN_MOTION_DOT":"0.00002996","FILE":"3612869","ARG_OF_PERICENTER":"69.2894","INCLINATION":"53.0533","REF_FRAME":"TEME","PERIAPSIS":"546.170","LAUNCH_DATE":"2021-02-16","TLE_LINE1":"1 47651U 21012AH  22287.91338667  .00002996  00000-0  21987-3 0  9999","MEAN_ELEMENT_THEORY":"SGP4","BSTAR":"0.00021987000000","CENTER_NAME":"EARTH","TIME_SYSTEM":"UTC","RCS_SIZE":"LARGE","GP_ID":"215143556","RA_OF_ASC_NODE":"246.2272","APOAPSIS":"548.200","OBJECT_TYPE":"PAYLOAD","SITE":"AFETR","ECCENTRICITY":"0.00014660"},{"ELEMENT_SET_NO":"999","MEAN_MOTION_DDOT":"0.0000000000000","SEMIMAJOR_AXIS":"6925.373","DECAY_DATE":null,"PERIOD":"95.593","CLASSIFICATION_TYPE":"U","MEAN_ANOMALY":"292.6381","OBJECT_ID":"2021-012AJ","MEAN_MOTION_DOT":"0.00002542","INCLINATION":"53.0547","ARG_OF_PERICENTER":"67.4772","FILE":"3612869","MEAN_MOTION":"15.06391962","NORAD_CAT_ID":"47652","TLE_LINE2":"2 47652  53.0547 247.5573 0001555  67.4772 292.6381 15.06391962 92770","REV_AT_EPOCH":"9277","OBJECT_NAME":"STARLINK-2036","COUNTRY_CODE":"US","EPOCH":"2022-10-14T14:29:25.550880","EPHEMERIS_TYPE":"0","TLE_LINE1":"1 47652U 21012AJ  22287.60376795  .00002542  00000-0  18955-3 0  9998","LAUNCH_DATE":"2021-02-16","MEAN_ELEMENT_THEORY":"SGP4","REF_FRAME":"TEME","PERIAPSIS":"546.161","ECCENTRICITY":"0.00015550","APOAPSIS":"548.315","RA_OF_ASC_NODE":"247.5573","GP_ID":"215142304","SITE":"AFETR","OBJECT_TYPE":"PAYLOAD","CENTER_NAME":"EARTH","RCS_SIZE":"LARGE","TIME_SYSTEM":"UTC","BSTAR":"0.00018955000000"},{"SITE":"AFETR","OBJECT_TYPE":"PAYLOAD","APOAPSIS":"548.245","RA_OF_ASC_NODE":"226.3935","GP_ID":"215142054","ECCENTRICITY":"0.00015000","BSTAR":"0.00026798000000","RCS_SIZE":"LARGE","TIME_SYSTEM":"UTC","CENTER_NAME":"EARTH","MEAN_ELEMENT_THEORY":"SGP4","TLE_LINE1":"1 47653U 21012AK  22287.86362716  .00003713  00000-0  26798-3 0  9990","LAUNCH_DATE":"2021-02-16","PERIAPSIS":"546.168","REF_FRAME":"TEME","NORAD_CAT_ID":"47653","MEAN_MOTION":"15.06402362","ARG_OF_PERICENTER":"84.3335","INCLINATION":"53.0558","FILE":"3612869","MEAN_MOTION_DOT":"0.00003713","COUNTRY_CODE":"US","EPHEMERIS_TYPE":"0","EPOCH":"2022-10-14T20:43:37.386624","REV_AT_EPOCH":"9308","OBJECT_NAME":"STARLINK-2037","TLE_LINE2":"2 47653  53.0558 226.3935 0001500  84.3335 275.7825 15.06402362 93080","DECAY_DATE":null,"PERIOD":"95.592","SEMIMAJOR_AXIS":"6925.341","MEAN_MOTION_DDOT":"0.0000000000000","ELEMENT_SET_NO":"999","MEAN_ANOMALY":"275.7825","OBJECT_ID":"2021-012AK","CLASSIFICATION_TYPE":"U"},{"CLASSIFICATION_TYPE":"U","MEAN_ANOMALY":"295.2632","OBJECT_ID":"2021-012AL","MEAN_MOTION_DDOT":"0.0000000000000","ELEMENT_SET_NO":"999","SEMIMAJOR_AXIS":"6925.307","PERIOD":"95.591","DECAY_DATE":null,"TLE_LINE2":"2 47654  53.0535 247.5562 0001561  64.8519 295.2632 15.06413570 92772","REV_AT_EPOCH":"9277","OBJECT_NAME":"STARLINK-2038","EPOCH":"2022-10-14T14:34:44.190624","EPHEMERIS_TYPE":"0","COUNTRY_CODE":"US","MEAN_MOTION_DOT":"0.00006375","FILE":"3612869","ARG_OF_PERICENTER":"64.8519","INCLINATION":"53.0535","MEAN_MOTION":"15.06413570","NORAD_CAT_ID":"47654","REF_FRAME":"TEME","PERIAPSIS":"546.091","LAUNCH_DATE":"2021-02-16","TLE_LINE1":"1 47654U 21012AL  22287.60745591  .00006375  00000-0  44635-3 0  9996","MEAN_ELEMENT_THEORY":"SGP4","CENTER_NAME":"EARTH","TIME_SYSTEM":"UTC","RCS_SIZE":"LARGE","BSTAR":"0.00044635000000","ECCENTRICITY":"0.00015610","RA_OF_ASC_NODE":"247.5562","GP_ID":"215143306","APOAPSIS":"548.253","OBJECT_TYPE":"PAYLOAD","SITE":"AFETR"},{"MEAN_MOTION":"15.06426299","NORAD_CAT_ID":"47655","MEAN_MOTION_DOT":"0.00006291","FILE":"3612869","ARG_OF_PERICENTER":"66.8656","INCLINATION":"53.0534","EPHEMERIS_TYPE":"0","EPOCH":"2022-10-14T20:46:14.991456","COUNTRY_CODE":"US","TLE_LINE2":"2 47655  53.0534 246.3899 0001840  66.8656 293.2527 15.06426299 92814","OBJECT_NAME":"STARLINK-2039","REV_AT_EPOCH":"9281","PERIOD":"95.590","DECAY_DATE":null,"MEAN_MOTION_DDOT":"0.0000000000000","ELEMENT_SET_NO":"999","SEMIMAJOR_AXIS":"6925.268","MEAN_ANOMALY":"293.2527","OBJECT_ID":"2021-012AM","CLASSIFICATION_TYPE":"U","GP_ID":"215143056","RA_OF_ASC_NODE":"246.3899","APOAPSIS":"548.407","OBJECT_TYPE":"PAYLOAD","SITE":"AFETR","ECCENTRICITY":"0.00018400","BSTAR":"0.00044056000000","CENTER_NAME":"EARTH","TIME_SYSTEM":"UTC","RCS_SIZE":"LARGE","LAUNCH_DATE":"2021-02-16","TLE_LINE1":"1 47655U 21012AM  22287.86545129  .00006291  00000-0  44056-3 0  9994","MEAN_ELEMENT_THEORY":"SGP4","REF_FRAME":"TEME","PERIAPSIS":"545.859"},{"MEAN_MOTION_DOT":"0.00003667","FILE":"3612869","INCLINATION":"53.0546","ARG_OF_PERICENTER":"92.8692","MEAN_MOTION":"15.06405384","NORAD_CAT_ID":"47656","TLE_LINE2":"2 47656  53.0546 226.3191 0000823  92.8692 267.2391 15.06405384 93093","REV_AT_EPOCH":"9309","OBJECT_NAME":"STARLINK-2040","EPOCH":"2022-10-14T21:10:08.943744","EPHEMERIS_TYPE":"0","COUNTRY_CODE":"US","MEAN_MOTION_DDOT":"0.0000000000000","ELEMENT_SET_NO":"999","SEMIMAJOR_AXIS":"6925.332","PERIOD":"95.592","DECAY_DATE":null,"CLASSIFICATION_TYPE":"U","OBJECT_ID":"2021-012AN","MEAN_ANOMALY":"267.2391","ECCENTRICITY":"0.00008230","RA_OF_ASC_NODE":"226.3191","GP_ID":"215141804","APOAPSIS":"547.767","OBJECT_TYPE":"PAYLOAD","SITE":"AFETR","CENTER_NAME":"EARTH","TIME_SYSTEM":"UTC","RCS_SIZE":"LARGE","BSTAR":"0.00026486000000","LAUNCH_DATE":"2021-02-16","TLE_LINE1":"1 47656U 21012AN  22287.88204796  .00003667  00000-0  26486-3 0  9990","MEAN_ELEMENT_THEORY":"SGP4","REF_FRAME":"TEME","PERIAPSIS":"546.627"},{"REV_AT_EPOCH":"9281","OBJECT_NAME":"STARLINK-2041","TLE_LINE2":"2 47657  53.0531 246.2895 0001504  78.5786 281.5372 15.06418253 92818","COUNTRY_CODE":"US","EPOCH":"2022-10-14T21:18:07.125408","EPHEMERIS_TYPE":"0","INCLINATION":"53.0531","ARG_OF_PERICENTER":"78.5786","FILE":"3612869","MEAN_MOTION_DOT":"0.00006272","NORAD_CAT_ID":"47657","MEAN_MOTION":"15.06418253","CLASSIFICATION_TYPE":"U","OBJECT_ID":"2021-012AP","MEAN_ANOMALY":"281.5372","SEMIMAJOR_AXIS":"6925.293","ELEMENT_SET_NO":"999","MEAN_MOTION_DDOT":"0.0000000000000","DECAY_DATE":null,"PERIOD":"95.591","RCS_SIZE":"LARGE","TIME_SYSTEM":"UTC","CENTER_NAME":"EARTH","BSTAR":"0.00043936000000","ECCENTRICITY":"0.00015040","SITE":"AFETR","OBJECT_TYPE":"PAYLOAD","APOAPSIS":"548.199","GP_ID":"215142555","RA_OF_ASC_NODE":"246.2895","PERIAPSIS":"546.116","REF_FRAME":"TEME","MEAN_ELEMENT_THEORY":"SGP4","TLE_LINE1":"1 47657U 21012AP  22287.88758247  .00006272  00000-0  43936-3 0  9990","LAUNCH_DATE":"2021-02-16"},{"REV_AT_EPOCH":"9283","OBJECT_NAME":"STARLINK-2042","TLE_LINE2":"2 47658  53.0528 246.3281 0001575  71.2019 288.9140 15.06409362 92839","EPOCH":"2022-10-14T21:07:29.861472","EPHEMERIS_TYPE":"0","COUNTRY_CODE":"US","FILE":"3612869","INCLINATION":"53.0528","ARG_OF_PERICENTER":"71.2019","MEAN_MOTION_DOT":"0.00003525","NORAD_CAT_ID":"47658","MEAN_MOTION":"15.06409362","CLASSIFICATION_TYPE":"U","OBJECT_ID":"2021-012AQ","MEAN_ANOMALY":"288.9140","SEMIMAJOR_AXIS":"6925.320","ELEMENT_SET_NO":"999","MEAN_MOTION_DDOT":"0.0000000000000","PERIOD":"95.592","DECAY_DATE":null,"TIME_SYSTEM":"UTC","RCS_SIZE":"LARGE","CENTER_NAME":"EARTH","BSTAR":"0.00025535000000","ECCENTRICITY":"0.00015750","OBJECT_TYPE":"PAYLOAD","SITE":"AFETR","GP_ID":"215142806","RA_OF_ASC_NODE":"246.3281","APOAPSIS":"548.276","PERIAPSIS":"546.094","REF_FRAME":"TEME","MEAN_ELEMENT_THEORY":"SGP4","LAUNCH_DATE":"2021-02-16","TLE_LINE1":"1 47658U 21012AQ  22287.88020673  .00003525  00000-0  25535-3 0  9999"}];
